STARLINK-4184           
1 52852U 22062Y   26156.61127118 -.00024392  00000+0 -15271-2 0  9990
2 52852  53.1856 349.3982 0000510 354.9251   5.1736 15.08663159219193
STARLINK-4209           
1 52855U 22062AB  26156.25786441 -.00003137  00000+0 -17919-3 0  9999
2 52855  53.1887 350.9856 0002274  90.4762 269.6490 15.08811761219149
STARLINK-4201           
1 52856U 22062AC  26155.73624240 -.00000044  00000+0  15324-4 0  9992
2 52856  53.1865 353.3745 0001785 101.2749 258.8443 15.08836605219065
STARLINK-4199           
1 52857U 22062AD  26156.25043175  .00009928  00000+0  63989-3 0  9991
2 52857  53.1882 351.0145 0001134  92.7294 267.3827 15.08904070219143
STARLINK-4198           
1 52858U 22062AE  26156.26131757  .00029525  00000+0  18543-2 0  9997
2 52858  53.1917 350.9951 0001245  12.0964 348.0058 15.09057732219146
STARLINK-4196           
1 52859U 22062AF  26156.04818571 -.00016007  00000+0 -99320-3 0  9996
2 52859  53.1866 351.9253 0001671  56.7509 303.3643 15.08715522219117
STARLINK-4191           
1 52860U 22062AG  26156.25414984  .00001445  00000+0  10885-3 0  9998
2 52860  53.1870 350.9985 0001401  84.5736 275.5416 15.08846036219143
STARLINK-4112           
1 52861U 22062AH  26156.22935948 -.00000737  00000+0 -28184-4 0  9991
2 52861  53.1882 351.1231 0001689 122.1013 238.0143 15.08831643219148
STARLINK-4010           
1 52862U 22062AJ  26156.24312670 -.00002049  00000+0 -11074-3 0  9992
2 52862  53.1897 351.0522 0001057 158.7751 201.3284 15.08823094219140
STARLINK-4270           
1 52863U 22062AK  26156.23576078  .00000058  00000+0  21730-4 0  9993
2 52863  53.1895 351.0824 0001041 104.4157 255.6950 15.08835292219140
STARLINK-4267           
1 52864U 22062AL  26156.23946176 -.00005078  00000+0 -30150-3 0  9998
2 52864  53.1904 351.0725 0001904 139.4200 220.6934 15.08801128219142
STARLINK-4274           
1 52865U 22062AM  26155.69479640  .00000306  00000+0  37293-4 0  9998
2 52865  53.1853 353.5140 0001078  72.0559 288.0550 15.08837728219063
STARLINK-4126           
1 52867U 22062AP  26155.75366916  .00001097  00000+0  86977-4 0  9999
2 52867  53.1880 353.2509 0001773  55.8007 304.3153 15.08843717219077
STARLINK-4261           
1 52868U 22062AQ  26155.69847860 -.00000180  00000+0  67933-5 0  9990
2 52868  53.1894 353.5260 0001967 126.4775 233.6398 15.08836137219064
STARLINK-4266           
1 52869U 22062AR  26156.21092473  .00001747  00000+0  12789-3 0  9998
2 52869  53.1776 341.1940 0001250 127.7145 232.3960 15.08819664219272
STARLINK-4207           
1 52871U 22062AT  26156.59732493 -.00000526  00000+0 -14952-4 0  9996
2 52871  53.1772 339.4627 0001401  29.3609 330.7461 15.08830743219330
STARLINK-4213           
1 52872U 22062AU  26156.33336806  .00040913  00000+0  25758-2 0  9993
2 52872  53.1730 340.6143 0001135  94.5442 245.8642 15.08811304  5810
STARLINK-4211           
1 52873U 22062AV  26155.72883618  .00001587  00000+0  11776-3 0  9994
2 52873  53.1832 343.3665 0001774 142.5678 217.5437 15.08840889219205
STARLINK-4193           
1 52875U 22062AX  26155.72517447 -.00002903  00000+0 -16444-3 0  9992
2 52875  53.1892 343.3777 0002255  58.0402 302.0809 15.08819237219204
STARLINK-4200           
1 52876U 22062AY  26155.73252821  .00001740  00000+0  12747-3 0  9994
2 52876  53.1887 343.3433 0005273  20.0591 340.0607 15.08843658219201
STARLINK-4214           
1 52877U 22062AZ  26156.22932270  .00000646  00000+0  58669-4 0  9991
2 52877  53.1808 341.1103 0001443 120.9021 239.2112 15.08831674219281
STARLINK-4171           
1 52878U 22062BA  26156.11895563  .00020342  00000+0  12955-2 0  9994
2 52878  53.1807 341.6104 0001751  57.2480 302.8680 15.08753146219262
STARLINK-4139           
1 52879U 22062BB  26156.21834106 -.00015052  00000+0 -93144-3 0  9996
2 52879  53.1803 341.1645 0003294 161.5985 198.5126 15.08762315219282
STARLINK-4181           
1 52882U 22062BE  26156.24030902  .00000643  00000+0  58493-4 0  9992
2 52882  53.1883 340.6380 0001634  68.3591 291.7575 15.08839309219290
GLOBALSTAR M087         
1 52888U 22064A   26156.52244080 -.00000096  00000+0  42132-4 0  9991
2 52888  51.9988  97.9643 0000502  10.7747 349.3130 12.62268842189668
PVSAT                   
1 52894U 22065A   26156.33598839  .00000311  00000+0  75226-4 0  9991
2 52894  98.2272 295.8354 0010380  59.5300 300.6923 14.59536703210627
