OBJECT_NAME,OBJECT_ID,EPOCH,MEAN_MOTION,ECCENTRICITY,INCLINATION,RA_OF_ASC_NODE,ARG_OF_PERICENTER,MEAN_ANOMALY,EPHEMERIS_TYPE,CLASSIFICATION_TYPE,NORAD_CAT_ID,ELEMENT_SET_NO,REV_AT_EPOCH,BSTAR,MEAN_MOTION_DOT,MEAN_MOTION_DDOT
STARLINK-4184,2022-062Y,2026-06-05T14:40:13.829952,15.08663159,.000051,53.1856,349.3982,354.9251,5.1736,0,U,52852,999,21919,-.15271E-2,-.24392E-3,0
STARLINK-4209,2022-062AB,2026-06-05T06:11:19.485024,15.08811761,.0002274,53.1887,350.9856,90.4762,269.6490,0,U,52855,999,21914,-.17919E-3,-.3137E-4,0
STARLINK-4201,2022-062AC,2026-06-04T17:40:11.343360,15.08836605,.0001785,53.1865,353.3745,101.2749,258.8443,0,U,52856,999,21906,.15324E-4,-.44E-6,0
STARLINK-4199,2022-062AD,2026-06-05T06:00:37.303200,15.08904070,.0001134,53.1882,351.0145,92.7294,267.3827,0,U,52857,999,21914,.63989E-3,.9928E-4,0
STARLINK-4198,2022-062AE,2026-06-05T06:16:17.838048,15.09057732,.0001245,53.1917,350.9951,12.0964,348.0058,0,U,52858,999,21914,.18543E-2,.29525E-3,0
STARLINK-4196,2022-062AF,2026-06-05T01:09:23.245344,15.08715522,.00016717,53.1866,351.9253,56.7509,303.3643,0,U,52859,999,21911,-.99319689E-3,-.16007E-3,0
STARLINK-4191,2022-062AG,2026-06-05T06:05:58.546176,15.08846036,.0001401,53.1870,350.9985,84.5736,275.5416,0,U,52860,999,21914,.10885E-3,.1445E-4,0
STARLINK-4112,2022-062AH,2026-06-05T05:30:16.659072,15.08831643,.0001689,53.1882,351.1231,122.1013,238.0143,0,U,52861,999,21914,-.28184E-4,-.737E-5,0
STARLINK-4010,2022-062AJ,2026-06-05T05:50:06.146880,15.08823094,.0001057,53.1897,351.0522,158.7751,201.3284,0,U,52862,999,21914,-.11074E-3,-.2049E-4,0
STARLINK-4270,2022-062AK,2026-06-05T05:39:29.731392,15.08835292,.0001041,53.1895,351.0824,104.4157,255.6950,0,U,52863,999,21914,.2173E-4,.58E-6,0
STARLINK-4267,2022-062AL,2026-06-05T05:44:49.496064,15.08801128,.0001904,53.1904,351.0725,139.4200,220.6934,0,U,52864,999,21914,-.3015E-3,-.5078E-4,0
STARLINK-4274,2022-062AM,2026-06-04T16:40:30.408960,15.08837728,.0001078,53.1853,353.5140,72.0559,288.0550,0,U,52865,999,21906,.37293E-4,.306E-5,0
STARLINK-4126,2022-062AP,2026-06-04T18:05:17.015424,15.08843717,.0001773,53.1880,353.2509,55.8007,304.3153,0,U,52867,999,21907,.86977382E-4,.1097E-4,0
STARLINK-4261,2022-062AQ,2026-06-04T16:45:48.551040,15.08836137,.0001967,53.1894,353.5260,126.4775,233.6398,0,U,52868,999,21906,.67933E-5,-.18E-5,0
STARLINK-4266,2022-062AR,2026-06-05T05:03:43.896672,15.08819664,.000125,53.1776,341.1940,127.7145,232.3960,0,U,52869,999,21927,.12789E-3,.1747E-4,0
STARLINK-4207,2022-062AT,2026-06-05T14:20:08.873952,15.08830743,.0001401,53.1772,339.4627,29.3609,330.7461,0,U,52871,999,21933,-.14952E-4,-.526E-5,0
STARLINK-4213,2022-062AU,2026-06-05T08:00:03.000384,15.08811304,.0001135,53.1730,340.6143,94.5442,245.8642,0,U,52872,999,581,.25758E-2,.40913E-3,0
STARLINK-4211,2022-062AV,2026-06-04T17:29:31.445952,15.08840889,.0001774,53.1832,343.3665,142.5678,217.5437,0,U,52873,999,21920,.11776E-3,.1587E-4,0
STARLINK-4193,2022-062AX,2026-06-04T17:24:15.074208,15.08819237,.0002255,53.1892,343.3777,58.0402,302.0809,0,U,52875,999,21920,-.16444E-3,-.2903E-4,0
STARLINK-4200,2022-062AY,2026-06-04T17:34:50.437344,15.08843658,.0005273,53.1887,343.3433,20.0591,340.0607,0,U,52876,999,21920,.12747E-3,.174E-4,0
STARLINK-4214,2022-062AZ,2026-06-05T05:30:13.481280,15.08831674,.0001443,53.1808,341.1103,120.9021,239.2112,0,U,52877,999,21928,.58669E-4,.646E-5,0
STARLINK-4171,2022-062BA,2026-06-05T02:51:17.766432,15.08753146,.00017513,53.1807,341.6104,57.2480,302.8680,0,U,52878,999,21926,.12955075E-2,.20342E-3,0
STARLINK-4139,2022-062BB,2026-06-05T05:14:24.667584,15.08762315,.0003294,53.1803,341.1645,161.5985,198.5126,0,U,52879,999,21928,-.93144E-3,-.15052E-3,0
STARLINK-4181,2022-062BE,2026-06-05T05:46:02.699328,15.08839309,.0001634,53.1883,340.6380,68.3591,291.7575,0,U,52882,999,21929,.58493E-4,.643E-5,0
GLOBALSTAR M087,2022-064A,2026-06-05T12:32:18.885120,12.62268842,.0000502,51.9988,97.9643,10.7747,349.3130,0,U,52888,999,18966,.42132E-4,-.96E-6,0
PVSAT,2022-065A,2026-06-05T08:03:49.396896,14.59536703,.001038,98.2272,295.8354,59.5300,300.6923,0,U,52894,999,21062,.75226E-4,.311E-5,0
